GLOBALSTAR M067 [+]     
1 32263U 07048A   23312.44533521 -.00000044  00000+0  39872-3 0  9993
2 32263  51.9738 312.7282 0000796 147.3408  17.7699 12.40634116736659
GLOBALSTAR M068 [-]     
1 32266U 07048D   23312.43068793 -.00000042  00000+0  34319-3 0  9998
2 32266  51.9890 290.8034 0000657 320.1738 207.4960 12.62770633743426
GLOBALSTAR M079 [+]     
1 37188U 10054A   23312.49319031 -.00000075  00000+0  16236-3 0  9991
2 37188  52.0015 125.7764 0001165  95.5822 282.4568 12.62269790602364
GLOBALSTAR M074 [+]     
1 37189U 10054B   23312.43962764 -.00000080  00000+0  13415-3 0  9995
2 37189  51.9990 125.3518 0000962  99.9919 275.0654 12.62271858602965
GLOBALSTAR M076 [+]     
1 37190U 10054C   23312.26293312 -.00000066  00000+0  20805-3 0  9999
2 37190  52.0003 126.0090 0001388 115.8762  54.9767 12.62263589602651
GLOBALSTAR M077 [+]     
1 37191U 10054D   23312.55669278 -.00000059  00000+0  25011-3 0  9996
2 37191  52.0063  81.8009 0000784 114.0083  11.5961 12.62266342603063
